{"fetched_at":"2026-07-19T17:31:09.790Z","source":"https://celestrak.org/NORAD/elements/gp.php?GROUP=oneweb&FORMAT=JSON","constellation":"oneweb","records":[{"OBJECT_NAME":"ONEWEB-0233","OBJECT_ID":"2021-045AE","EPOCH":"2026-07-19T04:35:08.631168","CLASSIFICATION_TYPE":"U","MEAN_MOTION":13.15550642,"ECCENTRICITY":0.00022917,"INCLINATION":87.8978,"RA_OF_ASC_NODE":252.8575,"ARG_OF_PERICENTER":102.4748,"MEAN_ANOMALY":257.6639,"EPHEMERIS_TYPE":0,"NORAD_CAT_ID":48795,"ELEMENT_SET_NO":999,"REV_AT_EPOCH":24850,"BSTAR":-0.000004568525,"MEAN_MOTION_DOT":1.1e-7,"MEAN_MOTION_DDOT":0},{"OBJECT_NAME":"ONEWEB-0190","OBJECT_ID":"2021-045AF","EPOCH":"2026-07-19T04:17:06.188640","CLASSIFICATION_TYPE":"U","MEAN_MOTION":13.15548769,"ECCENTRICITY":0.00023683,"INCLINATION":87.8985,"RA_OF_ASC_NODE":252.8234,"ARG_OF_PERICENTER":113.2418,"MEAN_ANOMALY":246.8962,"EPHEMERIS_TYPE":0,"NORAD_CAT_ID":48796,"ELEMENT_SET_NO":999,"REV_AT_EPOCH":24857,"BSTAR":-0.00029206904,"MEAN_MOTION_DOT":-9.7e-7,"MEAN_MOTION_DDOT":0},{"OBJECT_NAME":"ONEWEB-0236","OBJECT_ID":"2021-045AG","EPOCH":"2026-07-19T04:42:12.570912","CLASSIFICATION_TYPE":"U","MEAN_MOTION":13.15548506,"ECCENTRICITY":0.00020837,"INCLINATION":87.8975,"RA_OF_ASC_NODE":252.828,"ARG_OF_PERICENTER":94.0293,"MEAN_ANOMALY":266.1076,"EPHEMERIS_TYPE":0,"NORAD_CAT_ID":48797,"ELEMENT_SET_NO":999,"REV_AT_EPOCH":24846,"BSTAR":0.00011819896,"MEAN_MOTION_DOT":5.7e-7,"MEAN_MOTION_DDOT":0},{"OBJECT_NAME":"ONEWEB-0248","OBJECT_ID":"2021-045AH","EPOCH":"2026-07-19T03:10:55.769088","CLASSIFICATION_TYPE":"U","MEAN_MOTION":13.1554913,"ECCENTRICITY":0.00024199,"INCLINATION":87.8994,"RA_OF_ASC_NODE":252.8272,"ARG_OF_PERICENTER":103.3914,"MEAN_ANOMALY":256.7486,"EPHEMERIS_TYPE":0,"NORAD_CAT_ID":48798,"ELEMENT_SET_NO":999,"REV_AT_EPOCH":24861,"BSTAR":0.00052400924,"MEAN_MOTION_DOT":0.0000021,"MEAN_MOTION_DDOT":0},{"OBJECT_NAME":"ONEWEB-0225","OBJECT_ID":"2021-045AJ","EPOCH":"2026-07-19T03:42:53.271936","CLASSIFICATION_TYPE":"U","MEAN_MOTION":13.1554818,"ECCENTRICITY":0.00022893,"INCLINATION":87.8987,"RA_OF_ASC_NODE":252.8298,"ARG_OF_PERICENTER":110.5921,"MEAN_ANOMALY":249.5455,"EPHEMERIS_TYPE":0,"NORAD_CAT_ID":48799,"ELEMENT_SET_NO":999,"REV_AT_EPOCH":24862,"BSTAR":0.00012442107,"MEAN_MOTION_DOT":6e-7,"MEAN_MOTION_DDOT":0},{"OBJECT_NAME":"ONEWEB-0215","OBJECT_ID":"2021-045AK","EPOCH":"2026-07-19T04:49:02.340192","CLASSIFICATION_TYPE":"U","MEAN_MOTION":13.15549762,"ECCENTRICITY":0.00024848,"INCLINATION":87.8987,"RA_OF_ASC_NODE":252.805,"ARG_OF_PERICENTER":111.6154,"MEAN_ANOMALY":248.5242,"EPHEMERIS_TYPE":0,"NORAD_CAT_ID":48800,"ELEMENT_SET_NO":999,"REV_AT_EPOCH":24850,"BSTAR":0.000099947794,"MEAN_MOTION_DOT":5e-7,"MEAN_MOTION_DDOT":0},{"OBJECT_NAME":"ONEWEB-0216","OBJECT_ID":"2021-045AL","EPOCH":"2026-07-19T05:02:44.812896","CLASSIFICATION_TYPE":"U","MEAN_MOTION":13.15547982,"ECCENTRICITY":0.00019423,"INCLINATION":87.8989,"RA_OF_ASC_NODE":252.8168,"ARG_OF_PERICENTER":96.671,"MEAN_ANOMALY":263.4642,"EPHEMERIS_TYPE":0,"NORAD_CAT_ID":48801,"ELEMENT_SET_NO":999,"REV_AT_EPOCH":24851,"BSTAR":0.00052218262,"MEAN_MOTION_DOT":0.00000209,"MEAN_MOTION_DDOT":0},{"OBJECT_NAME":"ONEWEB-0239","OBJECT_ID":"2021-045AM","EPOCH":"2026-07-19T05:09:35.780544","CLASSIFICATION_TYPE":"U","MEAN_MOTION":13.15547498,"ECCENTRICITY":0.00027823,"INCLINATION":87.898,"RA_OF_ASC_NODE":252.819,"ARG_OF_PERICENTER":109.5898,"MEAN_ANOMALY":250.5533,"EPHEMERIS_TYPE":0,"NORAD_CAT_ID":48802,"ELEMENT_SET_NO":999,"REV_AT_EPOCH":24855,"BSTAR":0.00027511755,"MEAN_MOTION_DOT":0.00000116,"MEAN_MOTION_DDOT":0},{"OBJECT_NAME":"ONEWEB-0249","OBJECT_ID":"2021-060A","EPOCH":"2026-07-19T02:57:58.670208","CLASSIFICATION_TYPE":"U","MEAN_MOTION":13.16592274,"ECCENTRICITY":0.00021497,"INCLINATION":87.9078,"RA_OF_ASC_NODE":222.4345,"ARG_OF_PERICENTER":93.4676,"MEAN_ANOMALY":266.6701,"EPHEMERIS_TYPE":0,"NORAD_CAT_ID":48967,"ELEMENT_SET_NO":999,"REV_AT_EPOCH":24381,"BSTAR":0.00023414448,"MEAN_MOTION_DOT":0.00000102,"MEAN_MOTION_DDOT":0},{"OBJECT_NAME":"ONEWEB-0250","OBJECT_ID":"2021-060B","EPOCH":"2026-07-19T01:54:23.713632","CLASSIFICATION_TYPE":"U","MEAN_MOTION":13.25835682,"ECCENTRICITY":0.00030355,"INCLINATION":87.908,"RA_OF_ASC_NODE":220.0954,"ARG_OF_PERICENTER":82.4598,"MEAN_ANOMALY":277.6883,"EPHEMERIS_TYPE":0,"NORAD_CAT_ID":48968,"ELEMENT_SET_NO":999,"REV_AT_EPOCH":24444,"BSTAR":0.000028398181,"MEAN_MOTION_DOT":2.6e-7,"MEAN_MOTION_DDOT":0},{"OBJECT_NAME":"ONEWEB-0252","OBJECT_ID":"2021-060D","EPOCH":"2026-07-19T01:53:00.868992","CLASSIFICATION_TYPE":"U","MEAN_MOTION":13.16595557,"ECCENTRICITY":0.0001879,"INCLINATION":87.908,"RA_OF_ASC_NODE":222.4353,"ARG_OF_PERICENTER":96.7097,"MEAN_ANOMALY":263.4248,"EPHEMERIS_TYPE":0,"NORAD_CAT_ID":48970,"ELEMENT_SET_NO":999,"REV_AT_EPOCH":24385,"BSTAR":-0.000094093549,"MEAN_MOTION_DOT":-2.3e-7,"MEAN_MOTION_DDOT":0},{"OBJECT_NAME":"ONEWEB-0253","OBJECT_ID":"2021-060E","EPOCH":"2026-07-19T03:26:29.622624","CLASSIFICATION_TYPE":"U","MEAN_MOTION":13.16595133,"ECCENTRICITY":0.00021532,"INCLINATION":87.9077,"RA_OF_ASC_NODE":222.4275,"ARG_OF_PERICENTER":91.1509,"MEAN_ANOMALY":268.9868,"EPHEMERIS_TYPE":0,"NORAD_CAT_ID":48971,"ELEMENT_SET_NO":999,"REV_AT_EPOCH":24379,"BSTAR":0.000068540399,"MEAN_MOTION_DOT":3.9e-7,"MEAN_MOTION_DDOT":0},{"OBJECT_NAME":"ONEWEB-0254","OBJECT_ID":"2021-060F","EPOCH":"2026-07-19T07:19:03.462816","CLASSIFICATION_TYPE":"U","MEAN_MOTION":13.16594452,"ECCENTRICITY":0.00022035,"INCLINATION":87.9092,"RA_OF_ASC_NODE":222.3952,"ARG_OF_PERICENTER":94.6489,"MEAN_ANOMALY":265.4894,"EPHEMERIS_TYPE":0,"NORAD_CAT_ID":48972,"ELEMENT_SET_NO":999,"REV_AT_EPOCH":24381,"BSTAR":0.000036680195,"MEAN_MOTION_DOT":2.7e-7,"MEAN_MOTION_DDOT":0},{"OBJECT_NAME":"ONEWEB-0255","OBJECT_ID":"2021-060G","EPOCH":"2026-07-19T02:45:28.062432","CLASSIFICATION_TYPE":"U","MEAN_MOTION":13.16594024,"ECCENTRICITY":0.00021662,"INCLINATION":87.9078,"RA_OF_ASC_NODE":222.4379,"ARG_OF_PERICENTER":96.935,"MEAN_ANOMALY":263.2027,"EPHEMERIS_TYPE":0,"NORAD_CAT_ID":48973,"ELEMENT_SET_NO":999,"REV_AT_EPOCH":24386,"BSTAR":0.00015340267,"MEAN_MOTION_DOT":7.1e-7,"MEAN_MOTION_DDOT":0},{"OBJECT_NAME":"ONEWEB-0256","OBJECT_ID":"2021-060H","EPOCH":"2026-07-19T01:33:39.516480","CLASSIFICATION_TYPE":"U","MEAN_MOTION":13.16591865,"ECCENTRICITY":0.00020336,"INCLINATION":87.9075,"RA_OF_ASC_NODE":222.4505,"ARG_OF_PERICENTER":94.297,"MEAN_ANOMALY":265.8393,"EPHEMERIS_TYPE":0,"NORAD_CAT_ID":48974,"ELEMENT_SET_NO":999,"REV_AT_EPOCH":24382,"BSTAR":0.0028378571,"MEAN_MOTION_DOT":0.00001098,"MEAN_MOTION_DDOT":0},{"OBJECT_NAME":"ONEWEB-0257","OBJECT_ID":"2021-060J","EPOCH":"2026-07-19T02:20:23.310528","CLASSIFICATION_TYPE":"U","MEAN_MOTION":13.16593852,"ECCENTRICITY":0.0002051,"INCLINATION":87.9082,"RA_OF_ASC_NODE":222.4332,"ARG_OF_PERICENTER":97.3134,"MEAN_ANOMALY":262.823,"EPHEMERIS_TYPE":0,"NORAD_CAT_ID":48975,"ELEMENT_SET_NO":999,"REV_AT_EPOCH":24378,"BSTAR":-0.00037819743,"MEAN_MOTION_DOT":-0.00000132,"MEAN_MOTION_DDOT":0}]}
