[
  {
    "name": "ONEWEB-0233",
    "noradId": "48795",
    "line1": "1 48795U 21045AE  26200.19107212  .00000011  00000+0 -45685-5 0  9993",
    "line2": "2 48795  87.8978 252.8575 0002291 102.4748 257.6639 13.15550642248505"
  },
  {
    "name": "ONEWEB-0190",
    "noradId": "48796",
    "line1": "1 48796U 21045AF  26200.17854385 -.00000097  00000+0 -29207-3 0  9997",
    "line2": "2 48796  87.8985 252.8234 0002368 113.2418 246.8962 13.15548769248578"
  },
  {
    "name": "ONEWEB-0236",
    "noradId": "48797",
    "line1": "1 48797U 21045AG  26200.19597883  .00000057  00000+0  11820-3 0  9993",
    "line2": "2 48797  87.8975 252.8280 0002083  94.0293 266.1076 13.15548506248468"
  },
  {
    "name": "ONEWEB-0248",
    "noradId": "48798",
    "line1": "1 48798U 21045AH  26200.13258992  .00000210  00000+0  52401-3 0  9994",
    "line2": "2 48798  87.8994 252.8272 0002419 103.3914 256.7486 13.15549130248619"
  },
  {
    "name": "ONEWEB-0225",
    "noradId": "48799",
    "line1": "1 48799U 21045AJ  26200.15478324  .00000060  00000+0  12442-3 0  9994",
    "line2": "2 48799  87.8987 252.8298 0002289 110.5921 249.5455 13.15548180248624"
  },
  {
    "name": "ONEWEB-0215",
    "noradId": "48800",
    "line1": "1 48800U 21045AK  26200.20072153  .00000050  00000+0  99948-4 0  9999",
    "line2": "2 48800  87.8987 252.8050 0002484 111.6154 248.5242 13.15549762248507"
  },
  {
    "name": "ONEWEB-0216",
    "noradId": "48801",
    "line1": "1 48801U 21045AL  26200.21024089  .00000209  00000+0  52218-3 0  9990",
    "line2": "2 48801  87.8989 252.8168 0001942  96.6710 263.4642 13.15547982248511"
  },
  {
    "name": "ONEWEB-0239",
    "noradId": "48802",
    "line1": "1 48802U 21045AM  26200.21499746  .00000116  00000+0  27512-3 0  9993",
    "line2": "2 48802  87.8980 252.8190 0002782 109.5898 250.5533 13.15547498248554"
  },
  {
    "name": "ONEWEB-0249",
    "noradId": "48967",
    "line1": "1 48967U 21060A   26200.12359572  .00000102  00000+0  23414-3 0  9996",
    "line2": "2 48967  87.9078 222.4345 0002149  93.4676 266.6701 13.16592274243814"
  },
  {
    "name": "ONEWEB-0250",
    "noradId": "48968",
    "line1": "1 48968U 21060B   26200.07944113  .00000026  00000+0  28398-4 0  9994",
    "line2": "2 48968  87.9080 220.0954 0003035  82.4598 277.6883 13.25835682244440"
  },
  {
    "name": "ONEWEB-0252",
    "noradId": "48970",
    "line1": "1 48970U 21060D   26200.07848228 -.00000023  00000+0 -94094-4 0  9992",
    "line2": "2 48970  87.9080 222.4353 0001879  96.7097 263.4248 13.16595557243854"
  },
  {
    "name": "ONEWEB-0253",
    "noradId": "48971",
    "line1": "1 48971U 21060E   26200.14339841  .00000039  00000+0  68540-4 0  9999",
    "line2": "2 48971  87.9077 222.4275 0002153  91.1509 268.9868 13.16595133243798"
  },
  {
    "name": "ONEWEB-0254",
    "noradId": "48972",
    "line1": "1 48972U 21060F   26200.30490119  .00000027  00000+0  36680-4 0  9991",
    "line2": "2 48972  87.9092 222.3952 0002203  94.6489 265.4894 13.16594452243815"
  },
  {
    "name": "ONEWEB-0255",
    "noradId": "48973",
    "line1": "1 48973U 21060G   26200.11490813  .00000071  00000+0  15340-3 0  9990",
    "line2": "2 48973  87.9078 222.4379 0002166  96.9350 263.2027 13.16594024243868"
  },
  {
    "name": "ONEWEB-0256",
    "noradId": "48974",
    "line1": "1 48974U 21060H   26200.06504070  .00001098  00000+0  28379-2 0  9991",
    "line2": "2 48974  87.9075 222.4505 0002033  94.2970 265.8393 13.16591865243829"
  },
  {
    "name": "ONEWEB-0257",
    "noradId": "48975",
    "line1": "1 48975U 21060J   26200.09749202 -.00000132  00000+0 -37820-3 0  9995",
    "line2": "2 48975  87.9082 222.4332 0002051  97.3134 262.8230 13.16593852243782"
  }
]